[{"OBJECT_NAME":"CUTE-1.7+APD II (CO-65)","OBJECT_ID":"2008-021C","EPOCH":"2026-03-09T21:54:04.726080","MEAN_MOTION":15.08376872,"ECCENTRICITY":0.00096053,"INCLINATION":97.8207,"RA_OF_ASC_NODE":48.3884,"ARG_OF_PERICENTER":18.7003,"MEAN_ANOMALY":341.4575,"EPHEMERIS_TYPE":0,"CLASSIFICATION_TYPE":"U","NORAD_CAT_ID":32785,"ELEMENT_SET_NO":999,"REV_AT_EPOCH":97022,"BSTAR":0.00047295391,"MEAN_MOTION_DOT":7.295e-5,"MEAN_MOTION_DDOT":0},{"OBJECT_NAME":"STARLINK-4185","OBJECT_ID":"2022-083H","EPOCH":"2026-03-09T12:39:32.085216","MEAN_MOTION":15.08850981,"ECCENTRICITY":0.00014531,"INCLINATION":53.2179,"RA_OF_ASC_NODE":174.8496,"ARG_OF_PERICENTER":82.2429,"MEAN_ANOMALY":277.8728,"EPHEMERIS_TYPE":0,"CLASSIFICATION_TYPE":"U","NORAD_CAT_ID":53139,"ELEMENT_SET_NO":999,"REV_AT_EPOCH":20119,"BSTAR":7.9491771e-5,"MEAN_MOTION_DOT":9.78e-6,"MEAN_MOTION_DDOT":0}]
